<?xml version="1.0" encoding="UTF-8"?>
<ndm xmlns:xsi="http://www.w3.org/2001/XMLSchema-instance" xsi:noNamespaceSchemaLocation="https://sanaregistry.org/r/ndmxml_unqualified/ndmxml-2.0.0-master-2.0.xsd">
<omm id="CCSDS_OMM_VERS" version="2.0">
<header><CREATION_DATE/><ORIGINATOR/></header><body><segment><metadata><OBJECT_NAME>IRIDIUM 130</OBJECT_NAME><OBJECT_ID>2017-083D</OBJECT_ID><CENTER_NAME>EARTH</CENTER_NAME><REF_FRAME>TEME</REF_FRAME><TIME_SYSTEM>UTC</TIME_SYSTEM><MEAN_ELEMENT_THEORY>SGP4</MEAN_ELEMENT_THEORY></metadata><data><meanElements><EPOCH>2024-06-02T09:42:15.172992</EPOCH><MEAN_MOTION>14.34218140</MEAN_MOTION><ECCENTRICITY>.0002147</ECCENTRICITY><INCLINATION>86.3962</INCLINATION><RA_OF_ASC_NODE>273.4454</RA_OF_ASC_NODE><ARG_OF_PERICENTER>92.8945</ARG_OF_PERICENTER><MEAN_ANOMALY>267.2496</MEAN_ANOMALY></meanElements><tleParameters><EPHEMERIS_TYPE>0</EPHEMERIS_TYPE><CLASSIFICATION_TYPE>U</CLASSIFICATION_TYPE><NORAD_CAT_ID>43073</NORAD_CAT_ID><ELEMENT_SET_NO>999</ELEMENT_SET_NO><REV_AT_EPOCH>33736</REV_AT_EPOCH><BSTAR>.70117E-4</BSTAR><MEAN_MOTION_DOT>.216E-5</MEAN_MOTION_DOT><MEAN_MOTION_DDOT>0</MEAN_MOTION_DDOT></tleParameters></data></segment></body></omm>
<omm id="CCSDS_OMM_VERS" version="2.0">
<header><CREATION_DATE/><ORIGINATOR/></header><body><segment><metadata><OBJECT_NAME>IRIDIUM 151</OBJECT_NAME><OBJECT_ID>2017-083E</OBJECT_ID><CENTER_NAME>EARTH</CENTER_NAME><REF_FRAME>TEME</REF_FRAME><TIME_SYSTEM>UTC</TIME_SYSTEM><MEAN_ELEMENT_THEORY>SGP4</MEAN_ELEMENT_THEORY></metadata><data><meanElements><EPOCH>2024-06-02T09:05:43.156608</EPOCH><MEAN_MOTION>14.34219067</MEAN_MOTION><ECCENTRICITY>.0002378</ECCENTRICITY><INCLINATION>86.3956</INCLINATION><RA_OF_ASC_NODE>273.2936</RA_OF_ASC_NODE><ARG_OF_PERICENTER>90.9449</ARG_OF_PERICENTER><MEAN_ANOMALY>269.2020</MEAN_ANOMALY></meanElements><tleParameters><EPHEMERIS_TYPE>0</EPHEMERIS_TYPE><CLASSIFICATION_TYPE>U</CLASSIFICATION_TYPE><NORAD_CAT_ID>43074</NORAD_CAT_ID><ELEMENT_SET_NO>999</ELEMENT_SET_NO><REV_AT_EPOCH>33738</REV_AT_EPOCH><BSTAR>.62051E-4</BSTAR><MEAN_MOTION_DOT>.194E-5</MEAN_MOTION_DOT><MEAN_MOTION_DDOT>0</MEAN_MOTION_DDOT></tleParameters></data></segment></body></omm>
<omm id="CCSDS_OMM_VERS" version="2.0">
<header><CREATION_DATE/><ORIGINATOR/></header><body><segment><metadata><OBJECT_NAME>IRIDIUM 134</OBJECT_NAME><OBJECT_ID>2017-083F</OBJECT_ID><CENTER_NAME>EARTH</CENTER_NAME><REF_FRAME>TEME</REF_FRAME><TIME_SYSTEM>UTC</TIME_SYSTEM><MEAN_ELEMENT_THEORY>SGP4</MEAN_ELEMENT_THEORY></metadata><data><meanElements><EPOCH>2024-06-02T10:00:31.089600</EPOCH><MEAN_MOTION>14.34215987</MEAN_MOTION><ECCENTRICITY>.0002013</ECCENTRICITY><INCLINATION>86.3958</INCLINATION><RA_OF_ASC_NODE>273.2755</RA_OF_ASC_NODE><ARG_OF_PERICENTER>97.8445</ARG_OF_PERICENTER><MEAN_ANOMALY>262.2979</MEAN_ANOMALY></meanElements><tleParameters><EPHEMERIS_TYPE>0</EPHEMERIS_TYPE><CLASSIFICATION_TYPE>U</CLASSIFICATION_TYPE><NORAD_CAT_ID>43075</NORAD_CAT_ID><ELEMENT_SET_NO>999</ELEMENT_SET_NO><REV_AT_EPOCH>33735</REV_AT_EPOCH><BSTAR>.482E-4</BSTAR><MEAN_MOTION_DOT>.155E-5</MEAN_MOTION_DOT><MEAN_MOTION_DDOT>0</MEAN_MOTION_DDOT></tleParameters></data></segment></body></omm>
<omm id="CCSDS_OMM_VERS" version="2.0">
<header><CREATION_DATE/><ORIGINATOR/></header><body><segment><metadata><OBJECT_NAME>IRIDIUM 137</OBJECT_NAME><OBJECT_ID>2017-083G</OBJECT_ID><CENTER_NAME>EARTH</CENTER_NAME><REF_FRAME>TEME</REF_FRAME><TIME_SYSTEM>UTC</TIME_SYSTEM><MEAN_ELEMENT_THEORY>SGP4</MEAN_ELEMENT_THEORY></metadata><data><meanElements><EPOCH>2024-06-02T10:18:46.623456</EPOCH><MEAN_MOTION>14.34216714</MEAN_MOTION><ECCENTRICITY>.0002708</ECCENTRICITY><INCLINATION>86.3960</INCLINATION><RA_OF_ASC_NODE>273.3484</RA_OF_ASC_NODE><ARG_OF_PERICENTER>97.1746</ARG_OF_PERICENTER><MEAN_ANOMALY>262.9757</MEAN_ANOMALY></meanElements><tleParameters><EPHEMERIS_TYPE>0</EPHEMERIS_TYPE><CLASSIFICATION_TYPE>U</CLASSIFICATION_TYPE><NORAD_CAT_ID>43076</NORAD_CAT_ID><ELEMENT_SET_NO>999</ELEMENT_SET_NO><REV_AT_EPOCH>33742</REV_AT_EPOCH><BSTAR>.70136E-4</BSTAR><MEAN_MOTION_DOT>.216E-5</MEAN_MOTION_DOT><MEAN_MOTION_DDOT>0</MEAN_MOTION_DDOT></tleParameters></data></segment></body></omm>
<omm id="CCSDS_OMM_VERS" version="2.0">
<header><CREATION_DATE/><ORIGINATOR/></header><body><segment><metadata><OBJECT_NAME>IRIDIUM 141</OBJECT_NAME><OBJECT_ID>2017-083H</OBJECT_ID><CENTER_NAME>EARTH</CENTER_NAME><REF_FRAME>TEME</REF_FRAME><TIME_SYSTEM>UTC</TIME_SYSTEM><MEAN_ELEMENT_THEORY>SGP4</MEAN_ELEMENT_THEORY></metadata><data><meanElements><EPOCH>2024-06-02T18:31:59.117664</EPOCH><MEAN_MOTION>14.34218166</MEAN_MOTION><ECCENTRICITY>.0002087</ECCENTRICITY><INCLINATION>86.3955</INCLINATION><RA_OF_ASC_NODE>273.0779</RA_OF_ASC_NODE><ARG_OF_PERICENTER>92.0052</ARG_OF_PERICENTER><MEAN_ANOMALY>268.1383</MEAN_ANOMALY></meanElements><tleParameters><EPHEMERIS_TYPE>0</EPHEMERIS_TYPE><CLASSIFICATION_TYPE>U</CLASSIFICATION_TYPE><NORAD_CAT_ID>43077</NORAD_CAT_ID><ELEMENT_SET_NO>999</ELEMENT_SET_NO><REV_AT_EPOCH>33747</REV_AT_EPOCH><BSTAR>.14927E-4</BSTAR><MEAN_MOTION_DOT>.62E-6</MEAN_MOTION_DOT><MEAN_MOTION_DDOT>0</MEAN_MOTION_DDOT></tleParameters></data></segment></body></omm>
<omm id="CCSDS_OMM_VERS" version="2.0">
<header><CREATION_DATE/><ORIGINATOR/></header><body><segment><metadata><OBJECT_NAME>IRIDIUM 131</OBJECT_NAME><OBJECT_ID>2017-083K</OBJECT_ID><CENTER_NAME>EARTH</CENTER_NAME><REF_FRAME>TEME</REF_FRAME><TIME_SYSTEM>UTC</TIME_SYSTEM><MEAN_ELEMENT_THEORY>SGP4</MEAN_ELEMENT_THEORY></metadata><data><meanElements><EPOCH>2024-06-02T18:13:43.218336</EPOCH><MEAN_MOTION>14.34217101</MEAN_MOTION><ECCENTRICITY>.0002278</ECCENTRICITY><INCLINATION>86.3960</INCLINATION><RA_OF_ASC_NODE>273.2201</RA_OF_ASC_NODE><ARG_OF_PERICENTER>90.9837</ARG_OF_PERICENTER><MEAN_ANOMALY>269.1620</MEAN_ANOMALY></meanElements><tleParameters><EPHEMERIS_TYPE>0</EPHEMERIS_TYPE><CLASSIFICATION_TYPE>U</CLASSIFICATION_TYPE><NORAD_CAT_ID>43079</NORAD_CAT_ID><ELEMENT_SET_NO>999</ELEMENT_SET_NO><REV_AT_EPOCH>33740</REV_AT_EPOCH><BSTAR>-.68823E-4</BSTAR><MEAN_MOTION_DOT>-.173E-5</MEAN_MOTION_DOT><MEAN_MOTION_DDOT>0</MEAN_MOTION_DDOT></tleParameters></data></segment></body></omm>

</ndm>
